[
    {
        "Altitude(m)": 567186.8126574475,
        "Argument of Periapsis(deg)": -0.022603160782972403,
        "Eccentricity": 0.0,
        "Inclination(deg)": 97.0,
        "Latitude(deg)": -4.7117137845328,
        "Longitude(deg)": 77.0784835370422,
        "Mean Anomaly(deg)": 184.61764326918745,
        "RAAN(deg)": 0.005947053618510769,
        "Satellite Name": "Starlink Shell 3 1608",
        "Satellite Number": 1608,
        "Semi-Major Axis(m)": 6938478.169268562,
        "Time(s)": 570
    },
    {
        "Altitude(m)": 567301.9013666913,
        "Argument of Periapsis(deg)": -0.02299970746337543,
        "Eccentricity": 0.0,
        "Inclination(deg)": 97.0,
        "Latitude(deg)": -5.335891509620737,
        "Longitude(deg)": 76.95999264665076,
        "Mean Anomaly(deg)": 185.24311946689252,
        "RAAN(deg)": 0.00605138789251973,
        "Satellite Name": "Starlink Shell 3 1608",
        "Satellite Number": 1608,
        "Semi-Major Axis(m)": 6938478.169268562,
        "Time(s)": 580
    },
    {
        "Altitude(m)": 567421.123814045,
        "Argument of Periapsis(deg)": -0.023396254143778456,
        "Eccentricity": 0.0,
        "Inclination(deg)": 97.0,
        "Latitude(deg)": -5.960029033248891,
        "Longitude(deg)": 76.84134921261486,
        "Mean Anomaly(deg)": 185.86859566459756,
        "RAAN(deg)": 0.0061557221665286925,
        "Satellite Name": "Starlink Shell 3 1608",
        "Satellite Number": 1608,
        "Semi-Major Axis(m)": 6938478.169268562,
        "Time(s)": 590
    },
    {
        "Altitude(m)": 567544.4514411354,
        "Argument of Periapsis(deg)": -0.023792800824181483,
        "Eccentricity": 0.0,
        "Inclination(deg)": 97.0,
        "Latitude(deg)": -6.584123375808127,
        "Longitude(deg)": 76.72253451563785,
        "Mean Anomaly(deg)": 186.4940718623026,
        "RAAN(deg)": 0.0062600564405376515,
        "Satellite Name": "Starlink Shell 3 1608",
        "Satellite Number": 1608,
        "Semi-Major Axis(m)": 6938478.169268562,
        "Time(s)": 600
    },
    {
        "Altitude(m)": 567671.8536744193,
        "Argument of Periapsis(deg)": -0.024189347504584503,
        "Eccentricity": 0.0,
        "Inclination(deg)": 97.0,
        "Latitude(deg)": -7.208171558897854,
        "Longitude(deg)": 76.60352967518082,
        "Mean Anomaly(deg)": 187.11954806000765,
        "RAAN(deg)": 0.006364390714546612,
        "Satellite Name": "Starlink Shell 3 1608",
        "Satellite Number": 1608,
        "Semi-Major Axis(m)": 6938478.169268562,
        "Time(s)": 610
    },
    {
        "Altitude(m)": 567803.2979373669,
        "Argument of Periapsis(deg)": -0.02458589418498753,
        "Eccentricity": 0.0,
        "Inclination(deg)": 97.0,
        "Latitude(deg)": -7.832170605119634,
        "Longitude(deg)": 76.48431613545964,
        "Mean Anomaly(deg)": 187.74502425771269,
        "RAAN(deg)": 0.0064687249885555746,
        "Satellite Name": "Starlink Shell 3 1608",
        "Satellite Number": 1608,
        "Semi-Major Axis(m)": 6938478.169268562,
        "Time(s)": 620
    },
    {
        "Altitude(m)": 567938.7496636289,
        "Argument of Periapsis(deg)": -0.024982440865390556,
        "Eccentricity": 0.0,
        "Inclination(deg)": 97.0,
        "Latitude(deg)": -8.45611753784393,
        "Longitude(deg)": 76.36487447011143,
        "Mean Anomaly(deg)": 188.37050045541775,
        "RAAN(deg)": 0.006573059262564535,
        "Satellite Name": "Starlink Shell 3 1608",
        "Satellite Number": 1608,
        "Semi-Major Axis(m)": 6938478.169268562,
        "Time(s)": 630
    },
    {
        "Altitude(m)": 568078.172311255,
        "Argument of Periapsis(deg)": -0.025378987545793576,
        "Eccentricity": 0.0,
        "Inclination(deg)": 97.0,
        "Latitude(deg)": -9.08000938094301,
        "Longitude(deg)": 76.24518570791618,
        "Mean Anomaly(deg)": 188.9959766531228,
        "RAAN(deg)": 0.006677393536573496,
        "Satellite Name": "Starlink Shell 3 1608",
        "Satellite Number": 1608,
        "Semi-Major Axis(m)": 6938478.169268562,
        "Time(s)": 640
    },
    {
        "Altitude(m)": 568221.5273778739,
        "Argument of Periapsis(deg)": -0.025775534226196602,
        "Eccentricity": 0.0,
        "Inclination(deg)": 97.0,
        "Latitude(deg)": -9.703843158491198,
        "Longitude(deg)": 76.12523013662219,
        "Mean Anomaly(deg)": 189.62145285082784,
        "RAAN(deg)": 0.006781727810582457,
        "Satellite Name": "Starlink Shell 3 1608",
        "Satellite Number": 1608,
        "Semi-Major Axis(m)": 6938478.169268562,
        "Time(s)": 650
    },
    {
        "Altitude(m)": 568368.7744168617,
        "Argument of Periapsis(deg)": -0.026172080906599626,
        "Eccentricity": 0.0,
        "Inclination(deg)": 97.0,
        "Latitude(deg)": -10.327615894426028,
        "Longitude(deg)": 76.00498778725856,
        "Mean Anomaly(deg)": 190.24692904853288,
        "RAAN(deg)": 0.006886062084591417,
        "Satellite Name": "Starlink Shell 3 1608",
        "Satellite Number": 1608,
        "Semi-Major Axis(m)": 6938478.169268562,
        "Time(s)": 660
    },
    {
        "Altitude(m)": 568519.8710545287,
        "Argument of Periapsis(deg)": -0.026568627587002652,
        "Eccentricity": 0.0,
        "Inclination(deg)": 97.0,
        "Latitude(deg)": -10.951324612168056,
        "Longitude(deg)": 75.88443891791994,
        "Mean Anomaly(deg)": 190.87240524623792,
        "RAAN(deg)": 0.006990396358600378,
        "Satellite Name": "Starlink Shell 3 1608",
        "Satellite Number": 1608,
        "Semi-Major Axis(m)": 6938478.169268562,
        "Time(s)": 670
    },
    {
        "Altitude(m)": 568674.7730082276,
        "Argument of Periapsis(deg)": -0.02696517426740568,
        "Eccentricity": 0.0,
        "Inclination(deg)": 97.0,
        "Latitude(deg)": -11.574966334197896,
        "Longitude(deg)": 75.76356298410523,
        "Mean Anomaly(deg)": 191.497881443943,
        "RAAN(deg)": 0.00709473063260934,
        "Satellite Name": "Starlink Shell 3 1608",
        "Satellite Number": 1608,
        "Semi-Major Axis(m)": 6938478.169268562,
        "Time(s)": 680
    },
    {
        "Altitude(m)": 568833.4341054516,
        "Argument of Periapsis(deg)": -0.0273617209478087,
        "Eccentricity": 0.0,
        "Inclination(deg)": 97.0,
        "Latitude(deg)": -12.198538081583582,
        "Longitude(deg)": 75.64233912130796,
        "Mean Anomaly(deg)": 192.12335764164803,
        "RAAN(deg)": 0.007199064906618299,
        "Satellite Name": "Starlink Shell 3 1608",
        "Satellite Number": 1608,
        "Semi-Major Axis(m)": 6938478.169268562,
        "Time(s)": 690
    },
    {
        "Altitude(m)": 568995.806303864,
        "Argument of Periapsis(deg)": -0.027758267628211725,
        "Eccentricity": 0.0,
        "Inclination(deg)": 97.0,
        "Latitude(deg)": -12.822036873457138,
        "Longitude(deg)": 75.52074662693457,
        "Mean Anomaly(deg)": 192.74883383935307,
        "RAAN(deg)": 0.00730339918062726,
        "Satellite Name": "Starlink Shell 3 1608",
        "Satellite Number": 1608,
        "Semi-Major Axis(m)": 6938478.169268562,
        "Time(s)": 700
    },
    {
        "Altitude(m)": 569161.8397122668,
        "Argument of Periapsis(deg)": -0.028154814308614752,
        "Eccentricity": 0.0,
        "Inclination(deg)": 97.0,
        "Latitude(deg)": -13.445459726436683,
        "Longitude(deg)": 75.39876392862588,
        "Mean Anomaly(deg)": 193.3743100370581,
        "RAAN(deg)": 0.0074077334546362224,
        "Satellite Name": "Starlink Shell 3 1608",
        "Satellite Number": 1608,
        "Semi-Major Axis(m)": 6938478.169268562,
        "Time(s)": 710
    },
    {
        "Altitude(m)": 569331.4826125018,
        "Argument of Periapsis(deg)": -0.02855136098901778,
        "Eccentricity": 0.0,
        "Inclination(deg)": 97.0,
        "Latitude(deg)": -14.068803653988304,
        "Longitude(deg)": 75.27636906467211,
        "Mean Anomaly(deg)": 193.99978623476312,
        "RAAN(deg)": 0.007512067728645183,
        "Satellite Name": "Starlink Shell 3 1608",
        "Satellite Number": 1608,
        "Semi-Major Axis(m)": 6938478.169268562,
        "Time(s)": 720
    },
    {
        "Altitude(m)": 569504.6814822609,
        "Argument of Periapsis(deg)": -0.028947907669420805,
        "Eccentricity": 0.0,
        "Inclination(deg)": 97.0,
        "Latitude(deg)": -14.692065665725154,
        "Longitude(deg)": 75.15354016358918,
        "Mean Anomaly(deg)": 194.62526243246816,
        "RAAN(deg)": 0.007616402002654144,
        "Satellite Name": "Starlink Shell 3 1608",
        "Satellite Number": 1608,
        "Semi-Major Axis(m)": 6938478.169268562,
        "Time(s)": 730
    },
    {
        "Altitude(m)": 569681.3810187666,
        "Argument of Periapsis(deg)": -0.029344454349823825,
        "Eccentricity": 0.0,
        "Inclination(deg)": 97.0,
        "Latitude(deg)": -15.315242766639448,
        "Longitude(deg)": 75.03025440992403,
        "Mean Anomaly(deg)": 195.2507386301732,
        "RAAN(deg)": 0.0077207362766631045,
        "Satellite Name": "Starlink Shell 3 1608",
        "Satellite Number": 1608,
        "Semi-Major Axis(m)": 6938478.169268562,
        "Time(s)": 740
    },
    {
        "Altitude(m)": 569861.5241633812,
        "Argument of Periapsis(deg)": -0.029741001030226845,
        "Eccentricity": 0.0,
        "Inclination(deg)": 97.0,
        "Latitude(deg)": -15.93833195626238,
        "Longitude(deg)": 74.90648852196801,
        "Mean Anomaly(deg)": 195.87621482787824,
        "RAAN(deg)": 0.007825070550672067,
        "Satellite Name": "Starlink Shell 3 1608",
        "Satellite Number": 1608,
        "Semi-Major Axis(m)": 6938478.169268562,
        "Time(s)": 750
    }
]